ALOS (DAICHI)           
1 28931U 06002A   26037.45874235  .00002197  00000+0  37706-3 0  9991
2 28931  98.1170 353.5845 0002030  68.7242 291.4180 14.69705146 68897
H-2A R/B                
1 28932U 06002B   26037.39087328  .00010780  00000+0  54854-3 0  9994
2 28932  98.2364 181.7523 0052984 349.0297  10.9774 15.15794470 89690
RESURS-DK 1             
1 29228U 06021A   26037.19066045  .00004403  00000+0  25788-3 0  9994
2 29228  69.9351 318.4910 0004824 207.4370 152.6542 15.12557267 82764
CZ-4B R/B               
1 29507U 06046C   26037.60189073  .00006858  00000+0  34976-3 0  9999
2 29507  97.5650  82.5915 0033920  17.9590 342.2832 15.16566069 55330
CZ-2C R/B               
1 31114U 07010B   26037.30506568  .00000151  00000+0  88239-4 0  9999
2 31114  98.3970 152.1603 0059420  26.5247 333.8951 14.20235147975262
COSMO-SKYMED 1          
1 31598U 07023A   26037.63767686  .00005618  00000+0  50228-3 0  9994
2 31598  97.8856 228.4278 0000999  74.2128 285.9203 14.96289658 10261
COSMOS 2428             
1 31792U 07029A   26037.03079931  .00000362  00000+0  21986-3 0  9999
2 31792  70.9397 269.8007 0007132 312.1063  47.9451 14.12930847959620
SL-16 R/B               
1 31793U 07029B   26037.66806854  .00000448  00000+0  25702-3 0  9996
2 31793  70.9731 237.5929 0001883 276.1934 147.8645 14.14829982960986
KORONAS-FOTON           
1 33504U 09003A   26037.17982315  .00013767  00000+0  31636-3 0  9996
2 33504  82.4329 308.6126 0008894 273.1505  86.8724 15.42498455940884
CZ-2C R/B               
1 37731U 11030B   26037.35048250  .00002022  00000+0  26066-3 0  9999
2 37731  97.8493 355.2567 0054215  92.2032  59.5348 14.81101092785451
H-2A R/B                
1 38341U 12025E   26037.33888620  .00004674  00000+0  42585-3 0  9992
2 38341  98.4682   1.8972 0046072  56.1438 304.4151 14.94891789743531
SHIJIAN-16 (SJ-16)      
1 39358U 13057A   26037.65563883  .00001588  00000+0  15821-3 0  9997
2 39358  74.9699 243.8352 0016915 189.7566 170.3297 14.92234247666875
